[{"OBJECT_NAME":"BEIJING 1","OBJECT_ID":"2005-043A","EPOCH":"2026-03-14T14:17:01.418784","MEAN_MOTION":14.6346592,"ECCENTRICITY":0.00138196,"INCLINATION":98.2732,"RA_OF_ASC_NODE":206.3661,"ARG_OF_PERICENTER":213.6602,"MEAN_ANOMALY":146.3723,"EPHEMERIS_TYPE":0,"CLASSIFICATION_TYPE":"U","NORAD_CAT_ID":28890,"ELEMENT_SET_NO":999,"REV_AT_EPOCH":8681,"BSTAR":0.00010404118,"MEAN_MOTION_DOT":4.9e-6,"MEAN_MOTION_DDOT":0},{"OBJECT_NAME":"HUANJING 1A (HJ-1A)","OBJECT_ID":"2008-041A","EPOCH":"2026-03-14T15:01:04.114848","MEAN_MOTION":14.8373709,"ECCENTRICITY":0.00207368,"INCLINATION":97.6639,"RA_OF_ASC_NODE":63.1651,"ARG_OF_PERICENTER":88.5073,"MEAN_ANOMALY":271.8517,"EPHEMERIS_TYPE":0,"CLASSIFICATION_TYPE":"U","NORAD_CAT_ID":33320,"ELEMENT_SET_NO":999,"REV_AT_EPOCH":94438,"BSTAR":0.00013408199,"MEAN_MOTION_DOT":1.062e-5,"MEAN_MOTION_DDOT":0},{"OBJECT_NAME":"HUANJING 1B (HJ-1B)","OBJECT_ID":"2008-041B","EPOCH":"2026-03-14T14:54:24.476832","MEAN_MOTION":14.83118512,"ECCENTRICITY":0.0037483,"INCLINATION":97.6487,"RA_OF_ASC_NODE":66.6099,"ARG_OF_PERICENTER":131.8924,"MEAN_ANOMALY":228.5498,"EPHEMERIS_TYPE":0,"CLASSIFICATION_TYPE":"U","NORAD_CAT_ID":33321,"ELEMENT_SET_NO":999,"REV_AT_EPOCH":94439,"BSTAR":0.00018507388,"MEAN_MOTION_DOT":1.475e-5,"MEAN_MOTION_DDOT":0},{"OBJECT_NAME":"YAOGAN-4","OBJECT_ID":"2008-061A","EPOCH":"2026-03-14T13:52:19.704576","MEAN_MOTION":14.82995582,"ECCENTRICITY":0.00150078,"INCLINATION":97.9249,"RA_OF_ASC_NODE":7.8328,"ARG_OF_PERICENTER":24.3833,"MEAN_ANOMALY":335.8088,"EPHEMERIS_TYPE":0,"CLASSIFICATION_TYPE":"U","NORAD_CAT_ID":33446,"ELEMENT_SET_NO":999,"REV_AT_EPOCH":93164,"BSTAR":0.00020602168,"MEAN_MOTION_DOT":1.623e-5,"MEAN_MOTION_DDOT":0},{"OBJECT_NAME":"DEIMOS-1","OBJECT_ID":"2009-041A","EPOCH":"2026-03-14T13:32:39.523776","MEAN_MOTION":14.7512576,"ECCENTRICITY":0.00024726,"INCLINATION":97.7265,"RA_OF_ASC_NODE":234.9578,"ARG_OF_PERICENTER":111.2327,"MEAN_ANOMALY":248.9147,"EPHEMERIS_TYPE":0,"CLASSIFICATION_TYPE":"U","NORAD_CAT_ID":35681,"ELEMENT_SET_NO":999,"REV_AT_EPOCH":89293,"BSTAR":0.00016392212,"MEAN_MOTION_DOT":1.058e-5,"MEAN_MOTION_DDOT":0},{"OBJECT_NAME":"UK-DMC 2","OBJECT_ID":"2009-041C","EPOCH":"2026-03-14T14:02:48.479712","MEAN_MOTION":14.75863254,"ECCENTRICITY":0.00011868,"INCLINATION":97.8656,"RA_OF_ASC_NODE":210.9579,"ARG_OF_PERICENTER":97.417,"MEAN_ANOMALY":262.7174,"EPHEMERIS_TYPE":0,"CLASSIFICATION_TYPE":"U","NORAD_CAT_ID":35683,"ELEMENT_SET_NO":999,"REV_AT_EPOCH":89261,"BSTAR":0.00012598595,"MEAN_MOTION_DOT":8.15e-6,"MEAN_MOTION_DDOT":0},{"OBJECT_NAME":"DMC3-FM1","OBJECT_ID":"2015-032A","EPOCH":"2026-03-14T13:52:02.277696","MEAN_MOTION":14.85620394,"ECCENTRICITY":0.00060089,"INCLINATION":97.6609,"RA_OF_ASC_NODE":302.3906,"ARG_OF_PERICENTER":19.4066,"MEAN_ANOMALY":340.7377,"EPHEMERIS_TYPE":0,"CLASSIFICATION_TYPE":"U","NORAD_CAT_ID":40715,"ELEMENT_SET_NO":999,"REV_AT_EPOCH":57586,"BSTAR":7.1176208e-5,"MEAN_MOTION_DOT":5.65e-6,"MEAN_MOTION_DDOT":0},{"OBJECT_NAME":"DMC3-FM2","OBJECT_ID":"2015-032B","EPOCH":"2026-03-14T14:24:10.671264","MEAN_MOTION":14.85627385,"ECCENTRICITY":0.00067257,"INCLINATION":97.6664,"RA_OF_ASC_NODE":303.9211,"ARG_OF_PERICENTER":23.5512,"MEAN_ANOMALY":336.601,"EPHEMERIS_TYPE":0,"CLASSIFICATION_TYPE":"U","NORAD_CAT_ID":40716,"ELEMENT_SET_NO":999,"REV_AT_EPOCH":57586,"BSTAR":0.0001493267,"MEAN_MOTION_DOT":1.242e-5,"MEAN_MOTION_DDOT":0},{"OBJECT_NAME":"DMC3-FM3","OBJECT_ID":"2015-032C","EPOCH":"2026-03-14T14:57:24.701184","MEAN_MOTION":14.85624525,"ECCENTRICITY":0.0005964,"INCLINATION":97.6719,"RA_OF_ASC_NODE":305.635,"ARG_OF_PERICENTER":24.9888,"MEAN_ANOMALY":335.1615,"EPHEMERIS_TYPE":0,"CLASSIFICATION_TYPE":"U","NORAD_CAT_ID":40717,"ELEMENT_SET_NO":999,"REV_AT_EPOCH":57587,"BSTAR":5.6256281e-5,"MEAN_MOTION_DOT":4.36e-6,"MEAN_MOTION_DDOT":0}]
